NORAD_CAT_ID,OBJECT_NAME,OBJECT_TYPE,EPOCH,MEAN_MOTION,ECCENTRICITY,INCLINATION,RA_OF_ASC_NODE,ARG_OF_PERICENTER,MEAN_ANOMALY,BSTAR,MEAN_MOTION_DOT,MEAN_MOTION_DDOT,TLE_LINE0,TLE_LINE1,TLE_LINE2,SEMIMAJOR_AXIS,PERIOD,APOGEE,PERIGEE,DECAYED
54791.0,STARLINK-5425,PAYLOAD,2023-05-21 10:26:49,15.08834547,8.51e-05,53.2168,302.6359,66.6006,293.5076,-1.1321e-05,-4.68e-06,0.0,0 STARLINK-5425,1 54791U 22175AK  23141.43529648 -.00000468  00000-0 -11321-4 0  9997,2 54791  53.2168 302.6359 0000851  66.6006 293.5076 15.08834547 23494,6917.897,95.438,540.351,539.173,0.0
54791.0,STARLINK-5425,PAYLOAD,2023-05-21 15:12:59,15.08829818,8.6e-05,53.2176,301.7381,81.0348,279.0742,-4.4816e-05,-1.001e-05,0.0,0 STARLINK-5425,1 54791U 22175AK  23141.63402259 -.00001001  00000-0 -44816-4 0  9996,2 54791  53.2176 301.7381 0000860  81.0348 279.0742 15.08829818 23526,6917.912,95.438,540.371,539.182,0.0
54791.0,STARLINK-5425,PAYLOAD,2023-05-21 18:23:45,15.08833364,9.19e-05,53.2179,301.1423,80.2978,279.8118,-5.6981e-05,-1.194e-05,0.0,0 STARLINK-5425,1 54791U 22175AK  23141.76650166 -.00001194  00000-0 -56981-4 0  9991,2 54791  53.2179 301.1423 0000919  80.2978 279.8118 15.08833364 25703,6917.901,95.438,540.401,539.13,0.0
54791.0,STARLINK-5425,PAYLOAD,2023-05-22 03:56:04,15.08834709,8.69e-05,53.2173,299.3607,67.1348,292.9736,1.4862e-05,-5.1e-07,0.0,0 STARLINK-5425,1 54791U 22175AK  23142.16393904 -.00000051  00000-0  14862-4 0  9992,2 54791  53.2173 299.3607 0000869  67.1348 292.9736 15.08834709 23601,6917.897,95.438,540.363,539.16,0.0
54791.0,STARLINK-5425,PAYLOAD,2023-05-22 16:39:08,15.08845734,7.61e-05,53.2176,296.9823,59.228,300.8787,4.5767e-05,4.41e-06,0.0,0 STARLINK-5425,1 54791U 22175AK  23142.69385038  .00000441  00000-0  45767-4 0  9999,2 54791  53.2176 296.9823 0000761  59.2280 300.8787 15.08845734 23688,6917.863,95.437,540.254,539.201,0.0
54791.0,STARLINK-5425,PAYLOAD,2023-05-23 16:29:56,15.08825748,6.8e-05,53.2197,292.5195,72.4499,287.6567,0.00018877,2.717e-05,0.0,0 STARLINK-5425,1 54791U 22175AK  23143.68745831  .00002717  00000-0  18877-3 0  9999,2 54791  53.2197 292.5195 0000680  72.4499 287.6567 15.08825748 23832,6917.924,95.438,540.259,539.319,0.0
54791.0,STARLINK-5425,PAYLOAD,2023-05-23 19:40:42,15.08835534,8.56e-05,53.2183,291.9252,71.6688,288.4397,5.0049e-05,5.09e-06,0.0,0 STARLINK-5425,1 54791U 22175AK  23143.81993762  .00000509  00000-0  50049-4 0  9997,2 54791  53.2183 291.9252 0000856  71.6688 288.4397 15.08835534 26017,6917.894,95.438,540.351,539.167,0.0
54791.0,STARLINK-5425,PAYLOAD,2023-05-24 14:45:20,15.08839638,8.67e-05,53.2179,288.3561,71.1088,288.9998,-3.5338e-05,-8.5e-06,0.0,0 STARLINK-5425,1 54791U 22175AK  23144.61482006 -.00000850  00000-0 -35338-4 0  9995,2 54791  53.2179 288.3561 0000867  71.1088 288.9998 15.08839638 26130,6917.881,95.438,540.346,539.147,0.0
54791.0,STARLINK-5425,PAYLOAD,2023-05-25 14:36:07,15.08837537,8.56e-05,53.2177,283.8955,71.9788,288.1297,5.7169e-05,6.22e-06,0.0,0 STARLINK-5425,1 54791U 22175AK  23145.60841790  .00000622  00000-0  57169-4 0  9995,2 54791  53.2177 283.8955 0000856  71.9788 288.1297 15.08837537 26284,6917.888,95.438,540.345,539.161,0.0
54791.0,STARLINK-5425,PAYLOAD,2023-05-26 12:51:31,15.0883206,0.0001133,53.2182,279.7336,123.4661,236.6439,-4.329e-05,-9.77e-06,0.0,0 STARLINK-5425,1 54791U 22175AK  23146.53578492 -.00000977  00000-0 -43290-4 0  9999,2 54791  53.2182 279.7336 0001133 123.4661 236.6439 15.08832060 26427,6917.905,95.438,540.553,538.986,0.0
54791.0,STARLINK-5425,PAYLOAD,2023-05-26 14:26:55,15.0882987,0.000103,53.2189,279.4412,112.8832,247.2269,-5.8489e-05,-1.218e-05,0.0,0 STARLINK-5425,1 54791U 22175AK  23146.60202791 -.00001218  00000-0 -58489-4 0  9998,2 54791  53.2189 279.4412 0001030 112.8832 247.2269 15.08829870 24279,6917.911,95.438,540.489,539.064,0.0
54791.0,STARLINK-5425,PAYLOAD,2023-05-27 19:03:50,15.08857395,6.95e-05,53.2178,274.0838,80.5625,279.5446,-8.926e-05,-1.709e-05,0.0,0 STARLINK-5425,1 54791U 22175AK  23147.79433407 -.00001709  00000-0 -89260-4 0  9995,2 54791  53.2178 274.0838 0000695  80.5625 279.5446 15.08857395 24455,6917.827,95.436,540.173,539.211,0.0
54791.0,STARLINK-5425,PAYLOAD,2023-05-28 01:25:23,15.08848623,8.74e-05,53.2181,272.8935,119.8364,240.2715,-9.7693e-05,-1.843e-05,0.0,0 STARLINK-5425,1 54791U 22175AK  23148.05929820 -.00001843  00000-0 -97693-4 0  9992,2 54791  53.2181 272.8935 0000874 119.8364 240.2715 15.08848623 24490,6917.854,95.437,540.324,539.114,0.0
54791.0,STARLINK-5425,PAYLOAD,2023-05-28 07:46:56,15.08831746,8.84e-05,53.2174,271.7049,74.2839,285.8251,8.9278e-05,1.133e-05,0.0,0 STARLINK-5425,1 54791U 22175AK  23148.32426424  .00001133  00000-0  89278-4 0  9994,2 54791  53.2174 271.7049 0000884  74.2839 285.8251 15.08831746 24531,6917.906,95.438,540.382,539.159,0.0
54791.0,STARLINK-5425,PAYLOAD,2023-05-28 15:43:51,15.08839715,8.42e-05,53.2176,270.2188,79.2949,280.8138,0.00014418,2.008e-05,0.0,0 STARLINK-5425,1 54791U 22175AK  23148.65545760  .00002008  00000-0  14418-3 0  9990,2 54791  53.2176 270.2188 0000842  79.2949 280.8138 15.08839715 24580,6917.881,95.438,540.329,539.164,0.0
54791.0,STARLINK-5425,PAYLOAD,2023-05-29 13:59:15,15.08844996,7.44e-05,53.2177,266.0556,86.8036,273.3041,-3.9942e-05,-9.23e-06,0.0,0 STARLINK-5425,1 54791U 22175AK  23149.58281977 -.00000923  00000-0 -39942-4 0  9996,2 54791  53.2177 266.0556 0000744  86.8036 273.3041 15.08844996 26887,6917.865,95.437,540.245,539.215,0.0
54791.0,STARLINK-5425,PAYLOAD,2023-05-29 17:10:01,15.08847069,9.14e-05,53.2179,265.4601,82.451,277.6586,4.4209e-06,-2.17e-06,0.0,0 STARLINK-5425,1 54791U 22175AK  23149.71529662 -.00000217  00000-0  44209-5 0  9995,2 54791  53.2179 265.4601 0000914  82.4510 277.6586 15.08847069 24749,6917.859,95.437,540.356,539.091,0.0
54791.0,STARLINK-5425,PAYLOAD,2023-05-30 01:06:57,15.08842039,7.6e-05,53.2178,263.9738,89.1543,270.9536,-5.5958e-05,-1.178e-05,0.0,0 STARLINK-5425,1 54791U 22175AK  23150.04650001 -.00001178  00000-0 -55958-4 0  9995,2 54791  53.2178 263.9738 0000760  89.1543 270.9536 15.08842039 24799,6917.874,95.437,540.265,539.213,0.0
54791.0,STARLINK-5425,PAYLOAD,2023-05-30 12:14:39,15.08836609,8.11e-05,53.2173,261.8934,85.7523,274.3562,-3.191e-05,-7.95e-06,0.0,0 STARLINK-5425,1 54791U 22175AK  23150.51018370 -.00000795  00000-0 -31910-4 0  9990,2 54791  53.2173 261.8934 0000811  85.7523 274.3562 15.08836609 27028,6917.891,95.438,540.317,539.195,0.0
54791.0,STARLINK-5425,PAYLOAD,2023-05-30 13:50:02,15.08843128,8.23e-05,53.2177,261.5936,115.5859,244.5219,-6.474e-05,-1.318e-05,0.0,0 STARLINK-5425,1 54791U 22175AK  23150.57641966 -.00001318  00000-0 -64740-4 0  9998,2 54791  53.2177 261.5936 0000823 115.5859 244.5219 15.08843128 27031,6917.871,95.437,540.305,539.166,0.0
54791.0,STARLINK-5425,PAYLOAD,2023-05-31 10:30:03,15.0883699,7.31e-05,53.2171,257.7307,95.6046,264.503,1.325e-05,-7.7e-07,0.0,0 STARLINK-5425,1 54791U 22175AK  23151.43754065 -.00000077  00000-0  13250-4 0  9999,2 54791  53.2171 257.7307 0000731  95.6046 264.5030 15.08836990 25005,6917.89,95.438,540.26,539.249,0.0
54791.0,STARLINK-5425,PAYLOAD,2023-05-31 13:40:49,15.08842877,8.07e-05,53.2166,257.1361,110.6546,249.4533,-1.6796e-06,-3.14e-06,0.0,0 STARLINK-5425,1 54791U 22175AK  23151.57001749 -.00000314  00000-0 -16796-5 0  9992,2 54791  53.2166 257.1361 0000807 110.6546 249.4533 15.08842877 27182,6917.872,95.437,540.295,539.178,0.0
54791.0,STARLINK-5425,PAYLOAD,2023-06-01 10:20:50,15.08834251,8.45e-05,53.2164,253.2712,90.9487,269.1602,1.3252e-05,-7.7e-07,0.0,0 STARLINK-5425,1 54791U 22175AK  23152.43114363 -.00000077  00000-0  13252-4 0  9993,2 54791  53.2164 253.2712 0000845  90.9487 269.1602 15.08834251 27311,6917.898,95.438,540.348,539.178,0.0
54791.0,STARLINK-5425,PAYLOAD,2023-06-01 19:53:09,15.08811996,7.57e-05,53.2174,251.4872,98.9118,261.196,0.00038434,5.83e-05,0.0,0 STARLINK-5425,1 54791U 22175AK  23152.82858623  .00005830  00000-0  38434-3 0  9999,2 54791  53.2174 251.4872 0000757  98.9118 261.1960 15.08811996 25217,6917.966,95.439,540.355,539.307,0.0
54791.0,STARLINK-5425,PAYLOAD,2023-06-01 23:03:55,15.08835875,6.43e-05,53.2164,250.8851,83.2556,276.8509,1.9506e-05,2.3e-07,0.0,0 STARLINK-5425,1 54791U 22175AK  23152.96106200  .00000023  00000-0  19506-4 0  9990,2 54791  53.2164 250.8851 0000643  83.2556 276.8509 15.08835875 25239,6917.893,95.438,540.203,539.313,0.0
54791.0,STARLINK-5425,PAYLOAD,2023-06-02 13:22:24,15.08837355,8.67e-05,53.2173,248.2144,88.9391,271.17,-1.7796e-05,-5.71e-06,0.0,0 STARLINK-5425,1 54791U 22175AK  23153.55722578 -.00000571  00000-0 -17796-4 0  9997,2 54791  53.2173 248.2144 0000867  88.9391 271.1700 15.08837355 27487,6917.888,95.438,540.353,539.154,0.0
54791.0,STARLINK-5425,PAYLOAD,2023-06-02 16:33:10,15.08839715,8.73e-05,53.2174,247.619,96.1833,263.9259,-1.8705e-06,-3.17e-06,0.0,0 STARLINK-5425,1 54791U 22175AK  23153.68970358 -.00000317  00000-0 -18705-5 0  9992,2 54791  53.2174 247.6190 0000873  96.1833 263.9259 15.08839715 27504,6917.881,95.438,540.35,539.142,0.0
54791.0,STARLINK-5425,PAYLOAD,2023-06-03 10:02:25,15.08832496,8.52e-05,53.2178,244.3482,90.9251,269.1838,-3.6022e-05,-8.61e-06,0.0,0 STARLINK-5425,1 54791U 22175AK  23154.41835128 -.00000861  00000-0 -36022-4 0  9994,2 54791  53.2178 244.3482 0000852  90.9251 269.1838 15.08832496 25451,6917.903,95.438,540.358,539.179,0.0
54791.0,STARLINK-5425,PAYLOAD,2023-06-03 11:37:48,15.08832944,8.51e-05,53.2177,244.0508,90.2748,269.8341,-3.157e-05,-7.9e-06,0.0,0 STARLINK-5425,1 54791U 22175AK  23154.48459105 -.00000790  00000-0 -31570-4 0  9992,2 54791  53.2177 244.0508 0000851  90.2748 269.8341 15.08832944 27624,6917.902,95.438,540.356,539.178,0.0
54791.0,STARLINK-5425,PAYLOAD,2023-06-03 22:45:30,15.08837492,8.38e-05,53.2177,241.9694,103.2413,256.8673,4.9125e-07,-2.8e-06,0.0,0 STARLINK-5425,1 54791U 22175AK  23154.94826779 -.00000280  00000-0  49125-6 0  9998,2 54791  53.2177 241.9694 0000838 103.2413 256.8673 15.08837492 25530,6917.888,95.438,540.333,539.173,0.0
